HERMES-3                
1 63835U 25052BR  26068.93751242  .00020316  00000+0  69958-3 0  9995
2 63835  97.3987 324.6131 0007993 112.9583 247.2502 15.30039785 54863
STARLINK-35820          
1 66597U 25270K   26068.94364469  .00031399  00000+0  11455-2 0  9998
2 66597  43.0048  54.8394 0001503 240.2274 119.8429 15.27584678 17855
